IRIDIUM 155             
1 43573U 18061E   26054.38840829  .00000012  00000+0 -27870-5 0  9999
2 43573  86.3935 104.2814 0002062  91.4921 268.6511 14.34217601397045
IRIDIUM 154             
1 43574U 18061F   26054.36940248  .00000233  00000+0  76043-4 0  9993
2 43574  86.3940 104.4173 0002092  99.1619 260.9814 14.34217420397099
IRIDIUM 163             
1 43575U 18061G   26054.55965822  .00000056  00000+0  12851-4 0  9990
2 43575  86.3935 104.2565 0002235  91.9799 268.1653 14.34217933397095
IRIDIUM 156             
1 43576U 18061H   26054.53428747  .00000025  00000+0  18448-5 0  9994
2 43576  86.3935 104.2736 0001915  92.6775 267.4640 14.34217668397084
IRIDIUM 164             
1 43577U 18061J   26054.58502880  .00000025  00000+0  18855-5 0  9993
2 43577  86.3935 104.2913 0002118  99.7103 260.4333 14.34217639397137
IRIDIUM 159             
1 43578U 18061K   26054.41378185  .00000148  00000+0  45841-4 0  9995
2 43578  86.3936 104.3026 0002419  95.1042 265.0430 14.34221163397070
IRIDIUM 180             
1 43922U 19002A   26054.48304348 -.00000065  00000+0 -30344-4 0  9993
2 43922  86.3943  41.1056 0002228  87.8616 272.2835 14.34216038372690
IRIDIUM 176             
1 43923U 19002B   26054.38104841  .00000747  00000+0  11464-3 0  9995
2 43923  86.6068  41.1074 0002338  85.7271 274.4214 14.72251663382509
IRIDIUM 168             
1 43924U 19002C   26054.40693229  .00000043  00000+0  83423-5 0  9997
2 43924  86.3949  41.2118 0002222  87.8485 272.2965 14.34217691372663
IRIDIUM 173             
1 43925U 19002D   26054.39424533  .00000265  00000+0  87631-4 0  9996
2 43925  86.3945  41.1103 0002219  84.3809 275.7640 14.34217973372640
IRIDIUM 169             
1 43926U 19002E   26054.31989519  .00000137  00000+0  38294-4 0  9998
2 43926  86.4166  72.8033 0001928  70.1468 289.9938 14.38606201373851
IRIDIUM 172             
1 43927U 19002F   26054.52744019  .00000275  00000+0  91252-4 0  9992
2 43927  86.3945  41.0621 0002365  89.9103 270.2364 14.34216936372670
IRIDIUM 175             
1 43928U 19002G   26054.30848965  .00001125  00000+0  17449-3 0  9994
2 43928  86.1549 339.4793 0001653 111.3555 248.7838 14.72243654382488
IRIDIUM 171             
1 43929U 19002H   26054.36887492 -.00000040  00000+0 -21230-4 0  9990
2 43929  86.3948  41.4227 0001875  89.7507 270.3904 14.34216395372649
IRIDIUM 170             
1 43930U 19002J   26054.38720796  .00000539  00000+0  81497-4 0  9999
2 43930  86.6066  41.1080 0002457  89.5834 270.5664 14.72264546382512
IRIDIUM 167             
1 43931U 19002K   26054.36253409  .00000195  00000+0  62706-4 0  9990
2 43931  86.3945  41.1527 0001822  85.6158 274.5246 14.34219122372644
IRIDIUM 181             
1 56726U 23068S   26054.40625885  .00000321  00000+0  89499-4 0  9998
2 56726  86.4475 104.3748 0002445 102.1993 257.9482 14.43308527146026
IRIDIUM 177             
1 56727U 23068T   26054.61669256  .00001520  00000+0  19654-3 0  9999
2 56727  86.1978  22.7022 0002485  82.8170 277.3334 14.80230465149565
IRIDIUM 174             
1 56728U 23068U   26054.37486815  .00000622  00000+0  94760-4 0  9995
2 56728  86.6075  41.2491 0002597  87.7440 272.4075 14.72253185149274
IRIDIUM 178             
1 56729U 23068V   26054.47058815  .00000516  00000+0  64515-4 0  9999
2 56729  86.6482  72.8896 0002084 100.4514 259.6942 14.80233316149545
IRIDIUM 179             
1 56730U 23068W   26054.33000482  .00000491  00000+0  61170-4 0  9999
2 56730  86.6722  81.5972 0002219  91.1879 268.9596 14.80230011149521
